{"type": "FeatureCollection", "features": [ {"type": "Feature", "properties": {"norad_id": 35111, "name": "FENGYUN 1C DEB", "group": "fengyun-1c-debris", "lat": 71.52463857722074, "lon": -74.25351708536411, "alt_km": 848.0958492300106, "timestamp": "2025-12-22T14:45:57.690269+00:00", "meta": {"OBJECT_NAME": "FENGYUN 1C DEB", "OBJECT_ID": "1999-025DKP", "EPOCH": "2025-12-16T11:54:10.013472", "MEAN_MOTION": 14.10973478, "ECCENTRICITY": 0.0021869, "INCLINATION": 99.4657, "RA_OF_ASC_NODE": 69.3478, "ARG_OF_PERICENTER": 209.5025, "MEAN_ANOMALY": 150.4911, "EPHEMERIS_TYPE": 0, "CLASSIFICATION_TYPE": "U", "NORAD_CAT_ID": 35111, "ELEMENT_SET_NO": 999, "REV_AT_EPOCH": 64197, "BSTAR": 0.00043746639, "MEAN_MOTION_DOT": 7.38e-06, "MEAN_MOTION_DDOT": 0}, "tle": {"line1": "1 35111U 99025DKP 25350.49594923  .00000738  00000+0  43747-3 0  9991", "line2": "2 35111  99.4657  69.3478 0021869 209.5025 150.4911 14.10973478641971"}}, "geometry": {"type": "Point", "coordinates": [-74.25351708536411, 71.52463857722074]}}, {"type": "Feature", "properties": {"norad_id": 35116, "name": "FENGYUN 1C DEB", "group": "fengyun-1c-debris", "lat": 46.88683992331046, "lon": -128.1757344872704, "alt_km": 819.433472597585, "timestamp": "2025-12-22T14:45:57.690279+00:00", "meta": {"OBJECT_NAME": "FENGYUN 1C DEB", "OBJECT_ID": "1999-025DKU", "EPOCH": "2025-12-10T22:26:07.135584", "MEAN_MOTION": 14.25062569, "ECCENTRICITY": 0.0059356, "INCLINATION": 98.6618, "RA_OF_ASC_NODE": 30.9255, "ARG_OF_PERICENTER": 54.5271, "MEAN_ANOMALY": 306.1428, "EPHEMERIS_TYPE": 0, "CLASSIFICATION_TYPE": "U", "NORAD_CAT_ID": 35116, "ELEMENT_SET_NO": 999, "REV_AT_EPOCH": 59934, "BSTAR": 0.0014341, "MEAN_MOTION_DOT": 3.381e-05, "MEAN_MOTION_DDOT": 0}, "tle": {"line1": "1 35116U 99025DKU 25344.93480481  .00003381  00000+0  14341-2 0  9995", "line2": "2 35116  98.6618  30.9255 0059356  54.5271 306.1428 14.25062569599346"}}, "geometry": {"type": "Point", "coordinates": [-128.1757344872704, 46.88683992331046]}}, {"type": "Feature", "properties": {"norad_id": 35121, "name": "FENGYUN 1C DEB", "group": "fengyun-1c-debris", "lat": -52.081243544580545, "lon": -130.16447872822067, "alt_km": 943.1318652002628, "timestamp": "2025-12-22T14:45:57.690289+00:00", "meta": {"OBJECT_NAME": "FENGYUN 1C DEB", "OBJECT_ID": "1999-025DKZ", "EPOCH": "2025-12-20T20:16:55.438176", "MEAN_MOTION": 14.0475576, "ECCENTRICITY": 0.01584206, "INCLINATION": 98.3005, "RA_OF_ASC_NODE": 217.4143, "ARG_OF_PERICENTER": 73.7998, "MEAN_ANOMALY": 288.0539, "EPHEMERIS_TYPE": 0, "CLASSIFICATION_TYPE": "U", "NORAD_CAT_ID": 35121, "ELEMENT_SET_NO": 999, "REV_AT_EPOCH": 61205, "BSTAR": 0.00030704724, "MEAN_MOTION_DOT": 5.13e-06, "MEAN_MOTION_DDOT": 0}, "tle": {"line1": "1 35121U 99025DKZ 25354.84508609  .00000513  00000+0  30705-3 0  9992", "line2": "2 35121  98.3005 217.4143 0158420  73.7998 288.0539 14.04755760612052"}}, "geometry": {"type": "Point", "coordinates": [-130.16447872822067, -52.081243544580545]}}, {"type": "Feature", "properties": {"norad_id": 35122, "name": "FENGYUN 1C DEB", "group": "fengyun-1c-debris", "lat": -23.308622140189897, "lon": -169.033972041594, "alt_km": 845.4509821894126, "timestamp": "2025-12-22T14:45:57.690299+00:00", "meta": {"OBJECT_NAME": "FENGYUN 1C DEB", "OBJECT_ID": "1999-025DLA", "EPOCH": "2025-12-16T06:40:38.257248", "MEAN_MOTION": 14.14128348, "ECCENTRICITY": 0.00254765, "INCLINATION": 98.6718, "RA_OF_ASC_NODE": 8.5868, "ARG_OF_PERICENTER": 147.8283, "MEAN_ANOMALY": 212.4451, "EPHEMERIS_TYPE": 0, "CLASSIFICATION_TYPE": "U", "NORAD_CAT_ID": 35122, "ELEMENT_SET_NO": 999, "REV_AT_EPOCH": 63917, "BSTAR": 0.00028818425, "MEAN_MOTION_DOT": 5.08e-06, "MEAN_MOTION_DDOT": 0}, "tle": {"line1": "1 35122U 99025DLA 25350.27822057  .00000508  00000+0  28818-3 0  9998", "line2": "2 35122  98.6718   8.5868 0025476 147.8283 212.4451 14.14128348639177"}}, "geometry": {"type": "Point", "coordinates": [-169.033972041594, -23.308622140189897]}}, {"type": "Feature", "properties": {"norad_id": 35123, "name": "FENGYUN 1C DEB", "group": "fengyun-1c-debris", "lat": -3.409928467076052, "lon": -179.77963357979866, "alt_km": 792.0755668388492, "timestamp": "2025-12-22T14:45:57.690321+00:00", "meta": {"OBJECT_NAME": "FENGYUN 1C DEB", "OBJECT_ID": "1999-025DLB", "EPOCH": "2025-12-19T10:54:35.489088", "MEAN_MOTION": 14.2423349, "ECCENTRICITY": 0.0049602, "INCLINATION": 99.1223, "RA_OF_ASC_NODE": 176.3926, "ARG_OF_PERICENTER": 57.2022, "MEAN_ANOMALY": 303.3919, "EPHEMERIS_TYPE": 0, "CLASSIFICATION_TYPE": "U", "NORAD_CAT_ID": 35123, "ELEMENT_SET_NO": 999, "REV_AT_EPOCH": 61169, "BSTAR": 0.00041167, "MEAN_MOTION_DOT": 9.14e-06, "MEAN_MOTION_DDOT": 0}, "tle": {"line1": "1 35123U 99025DLB 25353.45457742  .00000914  00000+0  41167-3 0  9990", "line2": "2 35123  99.1223 176.3926 0049602  57.2022 303.3919 14.24233490611698"}}, "geometry": {"type": "Point", "coordinates": [-179.77963357979866, -3.409928467076052]}}, {"type": "Feature", "properties": {"norad_id": 35125, "name": "FENGYUN 1C DEB", "group": "fengyun-1c-debris", "lat": 36.961713741083166, "lon": 0.9153457683089813, "alt_km": 803.5477166189667, "timestamp": "2025-12-22T14:45:57.690332+00:00", "meta": {"OBJECT_NAME": "FENGYUN 1C DEB", "OBJECT_ID": "1999-025DLD", "EPOCH": "2025-12-21T06:45:20.871648", "MEAN_MOTION": 14.33188134, "ECCENTRICITY": 0.0051785, "INCLINATION": 98.2157, "RA_OF_ASC_NODE": 5.8912, "ARG_OF_PERICENTER": 268.5763, "MEAN_ANOMALY": 90.949, "EPHEMERIS_TYPE": 0, "CLASSIFICATION_TYPE": "U", "NORAD_CAT_ID": 35125, "ELEMENT_SET_NO": 999, "REV_AT_EPOCH": 31404, "BSTAR": 0.00096643, "MEAN_MOTION_DOT": 2.654e-05, "MEAN_MOTION_DDOT": 0}, "tle": {"line1": "1 35125U 99025DLD 25355.28149157  .00002654  00000+0  96643-3 0  9995", "line2": "2 35125  98.2157   5.8912 0051785 268.5763  90.9490 14.33188134314047"}}, "geometry": {"type": "Point", "coordinates": [0.9153457683089813, 36.961713741083166]}}, {"type": "Feature", "properties": {"norad_id": 35130, "name": "FENGYUN 1C DEB", "group": "fengyun-1c-debris", "lat": -57.532300513900026, "lon": 8.301134561674848, "alt_km": 576.1732411924631, "timestamp": "2025-12-22T14:45:57.690343+00:00", "meta": {"OBJECT_NAME": "FENGYUN 1C DEB", "OBJECT_ID": "1999-025DLJ", "EPOCH": "2025-12-21T20:07:04.434528", "MEAN_MOTION": 15.01765435, "ECCENTRICITY": 0.00121415, "INCLINATION": 99.0319, "RA_OF_ASC_NODE": 201.8749, "ARG_OF_PERICENTER": 44.6238, "MEAN_ANOMALY": 315.5957, "EPHEMERIS_TYPE": 0, "CLASSIFICATION_TYPE": "U", "NORAD_CAT_ID": 35130, "ELEMENT_SET_NO": 999, "REV_AT_EPOCH": 65050, "BSTAR": 0.006798984, "MEAN_MOTION_DOT": 0.00089702, "MEAN_MOTION_DDOT": 0}, "tle": {"line1": "1 35130U 99025DLJ 25355.83824577  .00089702  00000+0  67990-2 0  9999", "line2": "2 35130  99.0319 201.8749 0012141  44.6238 315.5957 15.01765435650500"}}, "geometry": {"type": "Point", "coordinates": [8.301134561674848, -57.532300513900026]}}, {"type": "Feature", "properties": {"norad_id": 35135, "name": "FENGYUN 1C DEB", "group": "fengyun-1c-debris", "lat": 76.82112630167525, "lon": -134.79828001795642, "alt_km": 862.235641998529, "timestamp": "2025-12-22T14:45:57.690353+00:00", "meta": {"OBJECT_NAME": "FENGYUN 1C DEB", "OBJECT_ID": "1999-025DLP", "EPOCH": "2025-12-22T05:51:04.283712", "MEAN_MOTION": 14.22559822, "ECCENTRICITY": 0.00808612, "INCLINATION": 98.5643, "RA_OF_ASC_NODE": 4.7831, "ARG_OF_PERICENTER": 256.4236, "MEAN_ANOMALY": 102.7926, "EPHEMERIS_TYPE": 0, "CLASSIFICATION_TYPE": "U", "NORAD_CAT_ID": 35135, "ELEMENT_SET_NO": 999, "REV_AT_EPOCH": 87959, "BSTAR": 0.00044303491, "MEAN_MOTION_DOT": 9.8e-06, "MEAN_MOTION_DDOT": 0}, "tle": {"line1": "1 35135U 99025DLP 25356.24379958  .00000980  00000+0  44303-3 0  9993", "line2": "2 35135  98.5643   4.7831 0080861 256.4236 102.7926 14.22559822879593"}}, "geometry": {"type": "Point", "coordinates": [-134.79828001795642, 76.82112630167525]}}, {"type": "Feature", "properties": {"norad_id": 35139, "name": "FENGYUN 1C DEB", "group": "fengyun-1c-debris", "lat": 37.84142231868792, "lon": -171.7031202062716, "alt_km": 848.084672605185, "timestamp": "2025-12-22T14:45:57.690364+00:00", "meta": {"OBJECT_NAME": "FENGYUN 1C DEB", "OBJECT_ID": "1999-025DLT", "EPOCH": "2025-12-17T05:40:19.572096", "MEAN_MOTION": 14.2110105, "ECCENTRICITY": 0.0067913, "INCLINATION": 98.584, "RA_OF_ASC_NODE": 356.3312, "ARG_OF_PERICENTER": 284.2558, "MEAN_ANOMALY": 75.1083, "EPHEMERIS_TYPE": 0, "CLASSIFICATION_TYPE": "U", "NORAD_CAT_ID": 35139, "ELEMENT_SET_NO": 999, "REV_AT_EPOCH": 64217, "BSTAR": 0.0003366611, "MEAN_MOTION_DOT": 7.05e-06, "MEAN_MOTION_DDOT": 0}, "tle": {"line1": "1 35139U 99025DLT 25351.23633764  .00000705  00000+0  33666-3 0  9994", "line2": "2 35139  98.5840 356.3312 0067913 284.2558  75.1083 14.21101050642179"}}, "geometry": {"type": "Point", "coordinates": [-171.7031202062716, 37.84142231868792]}}, {"type": "Feature", "properties": {"norad_id": 35140, "name": "FENGYUN 1C DEB", "group": "fengyun-1c-debris", "lat": -54.81890905286297, "lon": 145.40992344557338, "alt_km": 725.5993131926725, "timestamp": "2025-12-22T14:45:57.690374+00:00", "meta": {"OBJECT_NAME": "FENGYUN 1C DEB", "OBJECT_ID": "1999-025DLU", "EPOCH": "2025-12-21T05:32:01.237632", "MEAN_MOTION": 14.21359714, "ECCENTRICITY": 0.0290236, "INCLINATION": 98.446, "RA_OF_ASC_NODE": 336.251, "ARG_OF_PERICENTER": 301.8774, "MEAN_ANOMALY": 55.4461, "EPHEMERIS_TYPE": 0, "CLASSIFICATION_TYPE": "U", "NORAD_CAT_ID": 35140, "ELEMENT_SET_NO": 999, "REV_AT_EPOCH": 87399, "BSTAR": 0.00017323, "MEAN_MOTION_DOT": 5.27e-06, "MEAN_MOTION_DDOT": 0}, "tle": {"line1": "1 35140U 99025DLU 25355.23056988  .00000527  00000+0  17323-3 0  9991", "line2": "2 35140  98.4460 336.2510 0290236 301.8774  55.4461 14.21359714873996"}}, "geometry": {"type": "Point", "coordinates": [145.40992344557338, -54.81890905286297]}}]}